ALOS-2                  
1 39766U 14029A   26157.25027259  .00001636  00000+0  22598-3 0  9994
2 39766  97.9213 254.5706 0001679  90.9183 269.2221 14.79466081649960
KAZEOSAT 2              
1 40010U 14033A   26157.31762640  .00000954  00000+0  11644-3 0  9992
2 40010  97.5410 357.5035 0008863   6.2179 353.9145 14.85457825647344
HODOYOSHI-4             
1 40011U 14033B   26157.27558784  .00001751  00000+0  19512-3 0  9998
2 40011  97.5453 342.6247 0023439 345.8821  14.1738 14.88103967647188
DEIMOS-2                
1 40013U 14033D   26157.26395669  .00001777  00000+0  17317-3 0  9999
2 40013  97.5834  32.1355 0001983  59.1325 301.0090 14.93693623636094
HODOYOSHI-3             
1 40015U 14033F   26156.46364347  .00001176  00000+0  14143-3 0  9998
2 40015  97.6409 319.9773 0033690  35.4811 324.8636 14.85363664645888
SPOT 7                  
1 40053U 14034A   26157.29178892  .00000520  00000+0  11539-3 0  9999
2 40053  98.0628 220.0636 0001189  82.9130 277.2206 14.60949036635549
SKYSAT-B                
1 40072U 14037D   26156.82808045  .00001669  00000+0  18855-3 0  9994
2 40072  98.3832 115.1461 0004763 328.0961  31.9965 14.87998456644273
WORLDVIEW-3 (WV-3)      
1 40115U 14048A   26157.11692606  .00001041  00000+0  12835-3 0  9997
2 40115  97.8566 232.1026 0001798  42.3554 317.7799 14.85004099640269
GAOFEN-2                
1 40118U 14049A   26157.29791698  .00000619  00000+0  87086-4 0  9992
2 40118  98.0108 221.5152 0005855 270.8631  89.1910 14.80887746637625
YAOGAN-21               
1 40143U 14053A   26157.27956358  .00006646  00000+0  25919-3 0  9991
2 40143  97.1479 197.9850 0009745 124.6042 235.6118 15.26206820653297
YAOGAN-22               
1 40275U 14063A   26156.85408014 -.00000031  00000+0  41032-4 0  9990
2 40275 100.7711 307.9397 0006078 211.2774 148.7977 13.15530706558327
ASNARO                  
1 40298U 14070A   26157.29246725  .00011176  00000+0  53255-3 0  9991
2 40298  97.3448 233.7027 0004519 202.7436 157.3600 15.19272909642354
YAOGAN-24               
1 40310U 14072A   26157.30482348  .00000869  00000+0  13313-3 0  9991
2 40310  98.1480 294.5516 0012814 302.3609  57.6360 14.76209363622111
CBERS 4                 
1 40336U 14079A   26157.30310269 -.00000034  00000+0  27471-5 0  9995
2 40336  98.3530 214.4757 0002055  74.5070 285.6343 14.35505794602395
YAOGAN-26               
1 40362U 14088A   26157.26760579  .00034316  00000+0  68101-3 0  9994
2 40362  97.0652 157.7357 0006605  90.7582 269.4426 15.46911769636017
SMAP                    
1 40376U 15003A   26157.20801890  .00000507  00000+0  10726-3 0  9998
2 40376  98.1276 164.4581 0001259  91.8666 268.2680 14.63357082606011
KOMPSAT-3A              
1 40536U 15014A   26157.22893851  .00029817  00000+0  44000-3 0  9995
2 40536  97.6889 147.7944 0055566 214.4959 145.2683 15.53491545620115
SENTINEL-2A             
1 40697U 15028A   26157.30559727  .00000251  00000+0  11239-3 0  9997
2 40697  98.5681 232.3113 0001075  85.2850 274.8456 14.30821227572179
GAOFEN-8                
1 40701U 15030A   26157.27696098  .00023305  00000+0  48585-3 0  9994
2 40701  97.6913 349.9956 0008021 226.7270 133.3310 15.45546364609766
CARBONITE 1 (CBNT-1)    
1 40718U 15032D   26157.32365709  .00001985  00000+0  24684-3 0  9996
2 40718  97.6505 335.8451 0013904 336.4366  23.6210 14.83553832587737
YAOGAN-27               
1 40878U 15040A   26157.23359994  .00000488  00000+0  13978-2 0  9991
2 40878 100.1154 144.0923 0007432 238.0292 122.0099 13.16071459516222
GAOFEN-9 01             
1 40894U 15047A   26157.33352662  .00001104  00000+0  14165-3 0  9998
2 40894  97.6285 193.5211 0027525 172.5121 187.6510 14.82863380578580
YAOGAN-28               
1 41026U 15064A   26157.25070515  .00009012  00000+0  33942-3 0  9990
2 41026  97.3065 295.7374 0009694 223.4815 136.5660 15.27276763589011
YAOGAN-29               
1 41038U 15069A   26157.31541917  .00000825  00000+0  10803-3 0  9998
2 41038  98.0028 185.9312 0002980  71.8073 288.3464 14.83077801569014
KENT RIDGE 1            
1 41167U 15077B   26157.16161409  .00004828  00000+0  16723-3 0  9991
2 41167  14.9812 347.9786 0008308  82.2987 277.8279 15.23064317579415
GAOFEN-4                
1 41194U 15083A   26156.94066369 -.00000322  00000+0  00000+0 0  9995
2 41194   0.3282  83.7730 0004336 108.9436 145.9795  1.00269593 38412
JASON-3                 
1 41240U 16002A   26157.20652105 -.00000061  00000+0  62162-5 0  9991
2 41240  66.0390 148.9209 0008600 273.1934  86.8101 12.87627718485834
SENTINEL-3A             
1 41335U 16011A   26157.13604635  .00000133  00000+0  72843-4 0  9998
2 41335  98.6250 224.6779 0001326 105.1410 254.9917 14.26737024536488
ZIYUAN 3-02 (ZY 3-02)   
1 41556U 16033A   26157.27192602  .00006756  00000+0  30386-3 0  9990
2 41556  97.3832 233.2547 0011811 332.9050  27.1568 15.21375742556322
CARTOSAT-2C             
1 41599U 16040A   26157.32472471  .00004730  00000+0  22757-3 0  9999
2 41599  97.4480 217.4518 0009581 165.6577 194.4931 15.19228723552069
