OBJECT_NAME,OBJECT_ID,EPOCH,MEAN_MOTION,ECCENTRICITY,INCLINATION,RA_OF_ASC_NODE,ARG_OF_PERICENTER,MEAN_ANOMALY,EPHEMERIS_TYPE,CLASSIFICATION_TYPE,NORAD_CAT_ID,ELEMENT_SET_NO,REV_AT_EPOCH,BSTAR,MEAN_MOTION_DOT,MEAN_MOTION_DDOT
ALOS-2,2014-029A,2026-06-06T06:00:23.551776,14.79466081,.00016794,97.9213,254.5706,90.9183,269.2221,0,U,39766,999,64996,.22597799E-3,.1636E-4,0
KAZEOSAT 2,2014-033A,2026-06-06T07:37:22.920960,14.85457825,.00088637,97.5410,357.5035,6.2179,353.9145,0,U,40010,999,64734,.11643736E-3,.954E-5,0
HODOYOSHI-4,2014-033B,2026-06-06T06:36:50.789376,14.88103967,.0023439,97.5453,342.6247,345.8821,14.1738,0,U,40011,999,64718,.19511782E-3,.1751E-4,0
DEIMOS-2,2014-033D,2026-06-06T06:20:05.858016,14.93693623,.00019834,97.5834,32.1355,59.1325,301.0090,0,U,40013,999,63609,.17316917E-3,.1777E-4,0
HODOYOSHI-3,2014-033F,2026-06-05T11:07:38.795808,14.85363664,.00336903,97.6409,319.9773,35.4811,324.8636,0,U,40015,999,64588,.14142741E-3,.1176E-4,0
SPOT 7,2014-034A,2026-06-06T07:00:10.562688,14.60949036,.00011898,98.0628,220.0636,82.9130,277.2206,0,U,40053,999,63554,.11539479E-3,.52E-5,0
SKYSAT-B,2014-037D,2026-06-05T19:52:26.150880,14.87998456,.0004763,98.3832,115.1461,328.0961,31.9965,0,U,40072,999,64427,.18855E-3,.1669E-4,0
WORLDVIEW-3 (WV-3),2014-048A,2026-06-06T02:48:22.411584,14.85004099,.00017983,97.8566,232.1026,42.3554,317.7799,0,U,40115,999,64026,.12834609E-3,.1041E-4,0
GAOFEN-2,2014-049A,2026-06-06T07:09:00.027072,14.80887746,.00058557,98.0108,221.5152,270.8631,89.1910,0,U,40118,999,63762,.87085599E-4,.619E-5,0
YAOGAN-21,2014-053A,2026-06-06T06:42:34.293312,15.26206820,.00097456,97.1479,197.9850,124.6042,235.6118,0,U,40143,999,65329,.25918817E-3,.6646E-4,0
YAOGAN-22,2014-063A,2026-06-05T20:29:52.524096,13.15530706,.00060785,100.7711,307.9397,211.2774,148.7977,0,U,40275,999,55832,.41032004E-4,-.31E-6,0
ASNARO,2014-070A,2026-06-06T07:01:09.170400,15.19272909,.00045194,97.3448,233.7027,202.7436,157.3600,0,U,40298,999,64235,.53255209E-3,.11176E-3,0
YAOGAN-24,2014-072A,2026-06-06T07:18:56.748672,14.76209363,.00128142,98.1480,294.5516,302.3609,57.6360,0,U,40310,999,62211,.13313488E-3,.869E-5,0
CBERS 4,2014-079A,2026-06-06T07:16:28.072416,14.35505794,.00020555,98.3530,214.4757,74.5070,285.6343,0,U,40336,999,60239,.2747134E-5,-.34E-6,0
YAOGAN-26,2014-088A,2026-06-06T06:25:21.140256,15.46911769,.00066058,97.0652,157.7357,90.7582,269.4426,0,U,40362,999,63601,.68100562E-3,.34316E-3,0
SMAP,2015-003A,2026-06-06T04:59:32.832960,14.63357082,.00012595,98.1276,164.4581,91.8666,268.2680,0,U,40376,999,60601,.10725923E-3,.507E-5,0
KOMPSAT-3A,2015-014A,2026-06-06T05:29:40.287264,15.53491545,.00555665,97.6889,147.7944,214.4959,145.2683,0,U,40536,999,62011,.4399987E-3,.29817E-3,0
SENTINEL-2A,2015-028A,2026-06-06T07:20:03.604128,14.30821227,.00010754,98.5681,232.3113,85.2850,274.8456,0,U,40697,999,57217,.11238778E-3,.251E-5,0
GAOFEN-8,2015-030A,2026-06-06T06:38:49.428672,15.45546364,.00080214,97.6913,349.9956,226.7270,133.3310,0,U,40701,999,60976,.48584742E-3,.23305E-3,0
CARBONITE 1 (CBNT-1),2015-032D,2026-06-06T07:46:03.972576,14.83553832,.0013904,97.6505,335.8451,336.4366,23.6210,0,U,40718,999,58773,.24684165E-3,.1985E-4,0
YAOGAN-27,2015-040A,2026-06-06T05:36:23.034816,13.16071459,.00074322,100.1154,144.0923,238.0292,122.0099,0,U,40878,999,51622,.1397753E-2,.488E-5,0
GAOFEN-9 01,2015-047A,2026-06-06T08:00:16.699968,14.82863380,.0027525,97.6285,193.5211,172.5121,187.6510,0,U,40894,999,57858,.14164734E-3,.1104E-4,0
YAOGAN-28,2015-064A,2026-06-06T06:01:00.924960,15.27276763,.00096942,97.3065,295.7374,223.4815,136.5660,0,U,41026,999,58901,.33941969E-3,.9012E-4,0
YAOGAN-29,2015-069A,2026-06-06T07:34:12.216288,14.83077801,.00029809,98.0028,185.9312,71.8073,288.3464,0,U,41038,999,56901,.10803367E-3,.825E-5,0
KENT RIDGE 1,2015-077B,2026-06-06T03:52:43.457376,15.23064317,.00083084,14.9812,347.9786,82.2987,277.8279,0,U,41167,999,57941,.16723478E-3,.4828E-4,0
GAOFEN-4,2015-083A,2026-06-05T22:34:33.342816,1.00269593,.0004336,0.3282,83.7730,108.9436,145.9795,0,U,41194,999,3841,0,-.322E-5,0
JASON-3,2016-002A,2026-06-06T04:57:23.418720,12.87627718,.00086003,66.0390,148.9209,273.1934,86.8101,0,U,41240,999,48583,.6216233E-5,-.61E-6,0
SENTINEL-3A,2016-011A,2026-06-06T03:15:54.404640,14.26737024,.00013269,98.6250,224.6779,105.1410,254.9917,0,U,41335,999,53648,.72843389E-4,.133E-5,0
ZIYUAN 3-02 (ZY 3-02),2016-033A,2026-06-06T06:31:34.408128,15.21375742,.00118116,97.3832,233.2547,332.9050,27.1568,0,U,41556,999,55632,.30386262E-3,.6756E-4,0
CARTOSAT-2C,2016-040A,2026-06-06T07:47:36.214944,15.19228723,.00095813,97.4480,217.4518,165.6577,194.4931,0,U,41599,999,55206,.22757193E-3,.473E-4,0
